ONEWEB-0555             
1 56057U 23043M   25335.84315955 -.00000089  00000+0 -26624-3 0  9994
2 56057  87.9039 268.0652 0001241  75.2494 284.8774 13.16594069132997
ONEWEB-0557             
1 56058U 23043N   25336.08539859 -.00000030  00000+0 -11272-3 0  9992
2 56058  87.9035 268.0304 0001479 121.7491 238.3785 13.16595082133022
ONEWEB-0558             
1 56059U 23043P   25336.10335735  .00000049  00000+0  86358-4 0  9999
2 56059  87.9203 283.2945 0002154  66.4447 293.6913 13.21825253132205
ONEWEB-0559             
1 56060U 23043Q   25336.09185090 -.00000029  00000+0 -10275-3 0  9990
2 56060  87.9206 283.2900 0002139  77.6338 282.5035 13.21825818132217
ONEWEB-0566             
1 56061U 23043R   25336.08525111 -.00000058  00000+0 -17161-3 0  9995
2 56061  87.9207 283.2891 0002102  72.9270 287.2094 13.21823657132194
ONEWEB-0568             
1 56062U 23043S   25336.10281609 -.00000014  00000+0 -69304-4 0  9999
2 56062  87.9038 268.0138 0001466  74.5995 285.5298 13.16593176133042
ONEWEB-0574             
1 56063U 23043T   25336.15437617  .00000052  00000+0  94884-4 0  9998
2 56063  87.9205 283.2634 0001811  84.5951 275.5390 13.21825055132249
ONEWEB-0575             
1 56064U 23043U   25336.09648553 -.00000025  00000+0 -99180-4 0  9991
2 56064  87.9034 268.0156 0001556  88.5384 271.5925 13.16593756133032
ONEWEB-0576             
1 56065U 23043V   25336.07747595  .00000251  00000+0  62361-3 0  9995
2 56065  87.9040 268.0198 0001615  82.7900 277.3414 13.16590100133028
ONEWEB-0577             
1 56066U 23043W   25335.85581920  .00000001  00000+0 -29915-4 0  9992
2 56066  87.9039 268.0632 0001794 102.9598 257.1734 13.16593353133020
ONEWEB-0578             
1 56067U 23043X   25336.14121623  .00000017  00000+0  10720-4 0  9996
2 56067  87.9206 283.2760 0001581  77.6032 282.5279 13.21826543132204
ONEWEB-0579             
1 56068U 23043Y   25336.13132626  .00000044  00000+0  74503-4 0  9990
2 56068  87.9209 283.2653 0002087  78.5311 281.6057 13.21828488132216
ONEWEB-0581             
1 56069U 23043Z   25336.09015212 -.00000117  00000+0 -33858-3 0  9997
2 56069  87.9036 268.0305 0001846  89.6316 270.5026 13.16593465133021
ONEWEB-0609             
1 56070U 23043AA  25335.89105751  .00000190  00000+0  47057-3 0  9999
2 56070  87.8981 298.5863 0001841  78.8623 281.2715 13.15548438130495
ONEWEB-0613             
1 56071U 23043AB  25335.96236278  .00000116  00000+0  27280-3 0  9991
2 56071  87.8979 298.5846 0002071  77.9115 282.2247 13.15548775130503
ONEWEB-0630             
1 56072U 23043AC  25336.18577672  .00000006  00000+0 -18108-4 0  9992
2 56072  87.8980 298.5116 0002067  78.2658 281.8704 13.15548439130529
ONEWEB-0632             
1 56073U 23043AD  25335.95284472 -.00000024  00000+0 -97010-4 0  9990
2 56073  87.8974 298.5763 0001927  87.6410 272.4940 13.15548094130496
ONEWEB-0633             
1 56074U 23043AE  25336.17468359 -.00000079  00000+0 -24417-3 0  9994
2 56074  87.8977 298.4953 0002113  73.1178 287.0183 13.15547830130509
ONEWEB-0634             
1 56075U 23043AF  25336.16042370 -.00000124  00000+0 -36477-3 0  9995
2 56075  87.8981 298.5474 0001639  71.8320 288.2988 13.15548217130494
ONEWEB-0635             
1 56076U 23043AG  25335.92748856 -.00000118  00000+0 -34845-3 0  9991
2 56076  87.8976 298.5482 0001873  90.1614 269.9730 13.15550020130494
ONEWEB-0636             
1 56077U 23043AH  25336.14773993  .00000004  00000+0 -23398-4 0  9992
2 56077  87.8975 298.5218 0001858  88.8741 271.2602 13.15550351130502
ONEWEB-0637             
1 56078U 23043AJ  25336.14141240 -.00000042  00000+0 -14503-3 0  9997
2 56078  87.8979 298.5393 0001546  84.7989 275.3317 13.15549173130524
ONEWEB-0647             
1 56079U 23043AK  25335.90848521  .00000051  00000+0  10028-3 0  9993
2 56079  87.8979 298.5989 0001951  84.4310 275.7043 13.15548277130480
ONEWEB-0651             
1 56080U 23043AL  25335.90372757  .00000141  00000+0  34165-3 0  9996
2 56080  87.8980 298.5931 0001694  89.5232 270.6092 13.15549790131686
ONEWEB-0718             
1 56081U 23043AM  25336.20320552  .00000149  00000+0  36083-3 0  9996
2 56081  87.8979 298.5138 0001588  63.8220 296.3073 13.15547774130535
ONEWEB-0561             
1 56710U 23068A   25336.00284590  .00000009  00000+0 -10123-4 0  9995
2 56710  87.9183 313.7755 0002128  95.8581 264.2794 13.20773103123475
ONEWEB-0668             
1 56711U 23068B   25336.06482687  .00000034  00000+0  55397-4 0  9998
2 56711  87.9048 268.0068 0001302  64.1077 296.0188 13.16589749125846
ONEWEB-0676             
1 56712U 23068C   25336.07271301  .00002713  00000+0  70577-2 0  9990
2 56712  87.9031 268.0286 0001260  70.9879 289.1388 13.16615840125767
ONEWEB-0677             
1 56713U 23068D   25335.99180044 -.00000007  00000+0 -48371-4 0  9999
2 56713  87.9197 313.7597 0001758  89.9079 270.2256 13.20770326123778
ONEWEB-0678             
1 56714U 23068E   25335.94334392 -.00000076  00000+0 -23635-3 0  9993
2 56714  87.8984 298.5405 0002141  82.0479 278.0894 13.15547929123358
ONEWEB-0679             
1 56715U 23068F   25335.34757688  .00000168  00000+0  40603-3 0  9999
2 56715  87.9029 268.1575 0001235  84.5478 275.5794 13.16593146125693
ONEWEB-0680             
1 56716U 23068G   25335.83183066 -.00000034  00000+0 -11369-3 0  9998
2 56716  87.9211 283.3237 0001237  72.1035 288.0234 13.21824030125025
ONEWEB-0681             
1 56717U 23068H   25336.11405318 -.00000020  00000+0 -78810-4 0  9998
2 56717  87.9204 283.2836 0002131 109.4163 250.7202 13.21823417125054
ONEWEB-0682             
1 56718U 23068J   25335.96946906  .00000151  00000+0  36661-3 0  9994
2 56718  87.8975 298.5507 0001344  80.5968 279.5314 13.15550895123523
ONEWEB-0683             
1 56719U 23068K   25336.14299664 -.00000033  00000+0 -12269-3 0  9997
2 56719  87.8989 298.4995 0001592  77.8169 282.3139 13.15548526123510
ONEWEB-0684             
1 56720U 23068L   25335.84667435 -.00000067  00000+0 -21204-3 0  9996
2 56720  87.8986 298.5535 0003081  65.8788 294.2664 13.15550363123303
ONEWEB-0686             
1 56721U 23068M   25335.89483811  .00000132  00000+0  31838-3 0  9991
2 56721  87.9029 268.0872 0001773  63.4237 296.7074 13.15056041125755
ONEWEB-0694             
1 56722U 23068N   25335.84633130 -.00000090  00000+0 -26927-3 0  9996
2 56722  87.9048 268.0338 0001369  67.6600 292.4676 13.16593906125809
ONEWEB-0696             
1 56723U 23068P   25336.18419252  .00000096  00000+0  22139-3 0  9997
2 56723  87.8975 298.5396 0002183  81.1266 279.0111 13.15548375123468
ONEWEB-0703             
1 56724U 23068Q   25335.96553051  .00000155  00000+0  37654-3 0  9993
2 56724  87.8973 298.5652 0002820  90.7146 269.4307 13.15549138123326
ONEWEB-0721             
1 56725U 23068R   25335.97095525  .00000163  00000+0  35580-3 0  9997
2 56725  86.6792 148.4261 0001398  91.5875 268.5418 13.22453313131878
ONEWEB-0015             
1 61594U 24188A   25336.08231889  .00000510  00000+0  14042-2 0  9994
2 61594  87.8861  60.3514 0001683 124.0631 236.0657 13.11416440 58624
ONEWEB-0687             
1 61595U 24188B   25336.10048231  .00000064  00000+0  13163-3 0  9993
2 61595  87.9107  45.0901 0001217 113.1708 246.9552 13.17651750 59947
ONEWEB-0688             
1 61596U 24188C   25336.12916811  .00000092  00000+0  20286-3 0  9999
2 61596  87.9112  45.0850 0001906 143.3266 216.7996 13.17648709 59943
ONEWEB-0689             
1 61597U 24188D   25336.03991117 -.00000464  00000+0 -13458-2 0  9999
2 61597  87.8855  60.2954 0001329 101.1512 258.9765 13.11417353 58614
ONEWEB-0690             
1 61598U 24188E   25335.97379696 -.00000248  00000+0 -73504-3 0  9993
2 61598  87.8880  60.3192 0002410 102.0568 258.0830 13.11419160 58781
ONEWEB-0691             
1 61599U 24188F   25335.96870034 -.00000352  00000+0 -10286-2 0  9998
2 61599  87.8841  60.2250 0001686 118.3763 241.7535 13.11419943 58638
ONEWEB-0692             
1 61600U 24188G   25335.76016678  .00000386  00000+0  10541-2 0  9994
2 61600  87.8862  60.4090 0001651  71.0304 289.1003 13.11417762 58594
ONEWEB-0693             
1 61601U 24188H   25335.76130764  .00000011  00000+0 -39515-5 0  9999
2 61601  87.9112  45.1773 0002566 107.9705 252.1706 13.17647922 59884
ONEWEB-0695             
1 61602U 24188J   25335.73642125 -.00000473  00000+0 -13714-2 0  9999
2 61602  87.8864  60.4025 0001248  87.2820 272.8451 13.11417964 58589
ONEWEB-0697             
1 61603U 24188K   25335.76864964  .00000578  00000+0  15939-2 0  9995
2 61603  87.8860  60.3863 0001744  76.3425 283.7897 13.11418311 58577
ONEWEB-0698             
1 61604U 24188L   25335.67030622 -.00000129  00000+0 -39956-3 0  9992
2 61604  87.8864  60.4210 0002484  81.8414 278.2995 13.11419515 58586
ONEWEB-0699             
1 61605U 24188M   25335.83137192 -.00000118  00000+0 -37546-3 0  9992
2 61605  87.8817  75.6020 0001701  80.6572 279.4748 13.10368182 57462
ONEWEB-0700             
1 61606U 24188N   25335.83302992 -.00000209  00000+0 -63516-3 0  9992
2 61606  87.8822  75.4863 0001106  81.6230 278.5023 13.10369015 57454
ONEWEB-0701             
1 61607U 24188P   25335.77326654 -.00000703  00000+0 -20489-2 0  9997
2 61607  87.8816  75.6150 0001725  74.7847 285.3471 13.10372391 57457
ONEWEB-0702             
1 61608U 24188Q   25335.71611352 -.00000263  00000+0 -77649-3 0  9996
2 61608  87.8819  60.3017 0001481  64.1033 296.0247 13.11419032 58606
ONEWEB-0704             
1 61609U 24188R   25335.83800977 -.00000452  00000+0 -13303-2 0  9999
2 61609  87.8824  75.5654 0001302  67.5993 292.5272 13.10369798 57444
ONEWEB-0705             
1 61610U 24188S   25335.84298700 -.00000763  00000+0 -22223-2 0  9993
2 61610  87.8813  75.5874 0000496 110.5027 249.6154 13.10371377 49616
ONEWEB-0706             
1 61611U 24188T   25335.82805674  .00000050  00000+0  10825-3 0  9999
2 61611  87.8805  75.6125 0001135  85.1595 274.9662 13.10368440 57538
